STARLINK-5817           
1 55779U 23028AQ  26068.70663983  .00001103  00000+0  10025-3 0  9997
2 55779  70.0001 204.2112 0003222 266.7202  93.3589 14.98328520167035
CENTAURI-7              
1 62708U 25009DD  26068.76467094  .00005487  00000+0  48082-3 0  9992
2 62708  97.7123 150.3372 0001973 133.1699 226.9688 14.97068612 62583
