[{"OBJECT_NAME":"STARLINK-5817","OBJECT_ID":"2023-028AQ","EPOCH":"2026-03-09T16:57:33.682176","MEAN_MOTION":14.9832852,"ECCENTRICITY":0.00032219,"INCLINATION":70.0001,"RA_OF_ASC_NODE":204.2112,"ARG_OF_PERICENTER":266.7202,"MEAN_ANOMALY":93.3589,"EPHEMERIS_TYPE":0,"CLASSIFICATION_TYPE":"U","NORAD_CAT_ID":55779,"ELEMENT_SET_NO":999,"REV_AT_EPOCH":16703,"BSTAR":0.00010024754,"MEAN_MOTION_DOT":1.103e-5,"MEAN_MOTION_DDOT":0},{"OBJECT_NAME":"CENTAURI-7","OBJECT_ID":"2025-009DD","EPOCH":"2026-03-09T18:21:07.569216","MEAN_MOTION":14.97068612,"ECCENTRICITY":0.00019728,"INCLINATION":97.7123,"RA_OF_ASC_NODE":150.3372,"ARG_OF_PERICENTER":133.1699,"MEAN_ANOMALY":226.9688,"EPHEMERIS_TYPE":0,"CLASSIFICATION_TYPE":"U","NORAD_CAT_ID":62708,"ELEMENT_SET_NO":999,"REV_AT_EPOCH":6258,"BSTAR":0.00048082234,"MEAN_MOTION_DOT":5.487e-5,"MEAN_MOTION_DDOT":0}]
